CCSDS_OMM_VERS = 2.0
CREATION_DATE  = 
ORIGINATOR     = 

OBJECT_NAME    = AQUA
OBJECT_ID      = 2002-022A
CENTER_NAME    = EARTH
REF_FRAME      = TEME
TIME_SYSTEM    = UTC
MEAN_ELEMENT_THEORY = SGP/SGP4

EPOCH          = 2026-03-19T06:35:10.492800
MEAN_MOTION    = 14.61998899
ECCENTRICITY   = .00007551
INCLINATION    = 98.4192
RA_OF_ASC_NODE = 45.8151
ARG_OF_PERICENTER = 111.3145
MEAN_ANOMALY   = 353.0103

EPHEMERIS_TYPE = 0
CLASSIFICATION_TYPE = U
NORAD_CAT_ID   = 27424
ELEMENT_SET_NO = 999
REV_AT_EPOCH   = 27013
BSTAR          = .18278643E-3
MEAN_MOTION_DOT = .867E-5
MEAN_MOTION_DDOT = 0

CCSDS_OMM_VERS = 2.0
CREATION_DATE  = 
ORIGINATOR     = 

OBJECT_NAME    = CZ-4B R/B
OBJECT_ID      = 2002-024C
CENTER_NAME    = EARTH
REF_FRAME      = TEME
TIME_SYSTEM    = UTC
MEAN_ELEMENT_THEORY = SGP/SGP4

EPOCH          = 2026-03-19T03:00:19.066752
MEAN_MOTION    = 14.14549279
ECCENTRICITY   = .00500044
INCLINATION    = 98.8818
RA_OF_ASC_NODE = 131.4835
ARG_OF_PERICENTER = 357.4920
MEAN_ANOMALY   = 56.9954

EPHEMERIS_TYPE = 0
CLASSIFICATION_TYPE = U
NORAD_CAT_ID   = 27432
ELEMENT_SET_NO = 999
REV_AT_EPOCH   = 23057
BSTAR          = .4433879E-4
MEAN_MOTION_DOT = .41E-6
MEAN_MOTION_DDOT = 0

CCSDS_OMM_VERS = 2.0
CREATION_DATE  = 
ORIGINATOR     = 

OBJECT_NAME    = MIDORI II (ADEOS-II)
OBJECT_ID      = 2002-056A
CENTER_NAME    = EARTH
REF_FRAME      = TEME
TIME_SYSTEM    = UTC
MEAN_ELEMENT_THEORY = SGP/SGP4

EPOCH          = 2026-03-18T21:42:11.443968
MEAN_MOTION    = 14.29292030
ECCENTRICITY   = .00012145
INCLINATION    = 98.7785
RA_OF_ASC_NODE = 36.4465
ARG_OF_PERICENTER = 30.6601
MEAN_ANOMALY   = 329.4651

EPHEMERIS_TYPE = 0
CLASSIFICATION_TYPE = U
NORAD_CAT_ID   = 27597
ELEMENT_SET_NO = 999
REV_AT_EPOCH   = 21161
BSTAR          = .11947998E-3
MEAN_MOTION_DOT = .259E-5
MEAN_MOTION_DDOT = 0

CCSDS_OMM_VERS = 2.0
CREATION_DATE  = 
ORIGINATOR     = 

OBJECT_NAME    = H-2A R/B
OBJECT_ID      = 2002-056E
CENTER_NAME    = EARTH
REF_FRAME      = TEME
TIME_SYSTEM    = UTC
MEAN_ELEMENT_THEORY = SGP/SGP4

EPOCH          = 2026-03-18T22:05:55.819680
MEAN_MOTION    = 14.33766636
ECCENTRICITY   = .00710149
INCLINATION    = 98.3219
RA_OF_ASC_NODE = 37.9358
ARG_OF_PERICENTER = 133.3891
MEAN_ANOMALY   = 295.9920

EPHEMERIS_TYPE = 0
CLASSIFICATION_TYPE = U
NORAD_CAT_ID   = 27601
ELEMENT_SET_NO = 999
REV_AT_EPOCH   = 21543
BSTAR          = .9312972E-4
MEAN_MOTION_DOT = .225E-5
MEAN_MOTION_DDOT = 0

CCSDS_OMM_VERS = 2.0
CREATION_DATE  = 
ORIGINATOR     = 

OBJECT_NAME    = CZ-4B R/B
OBJECT_ID      = 2003-049C
CENTER_NAME    = EARTH
REF_FRAME      = TEME
TIME_SYSTEM    = UTC
MEAN_ELEMENT_THEORY = SGP/SGP4

EPOCH          = 2026-03-18T22:36:48.810240
MEAN_MOTION    = 14.55028611
ECCENTRICITY   = .00476843
INCLINATION    = 98.6887
RA_OF_ASC_NODE = 73.2107
ARG_OF_PERICENTER = 202.2176
MEAN_ANOMALY   = 157.6954

EPHEMERIS_TYPE = 0
CLASSIFICATION_TYPE = U
NORAD_CAT_ID   = 28059
ELEMENT_SET_NO = 999
REV_AT_EPOCH   = 18794
BSTAR          = .80393556E-4
MEAN_MOTION_DOT = .3E-5
MEAN_MOTION_DDOT = 0

CCSDS_OMM_VERS = 2.0
CREATION_DATE  = 
ORIGINATOR     = 

OBJECT_NAME    = CZ-2C R/B
OBJECT_ID      = 2004-012C
CENTER_NAME    = EARTH
REF_FRAME      = TEME
TIME_SYSTEM    = UTC
MEAN_ELEMENT_THEORY = SGP/SGP4

EPOCH          = 2026-03-19T03:15:17.072064
MEAN_MOTION    = 15.65610161
ECCENTRICITY   = .00129183
INCLINATION    = 97.7206
RA_OF_ASC_NODE = 144.3303
ARG_OF_PERICENTER = 270.6391
MEAN_ANOMALY   = 89.3388

EPHEMERIS_TYPE = 0
CLASSIFICATION_TYPE = U
NORAD_CAT_ID   = 28222
ELEMENT_SET_NO = 999
REV_AT_EPOCH   = 20575
BSTAR          = .46491744E-3
MEAN_MOTION_DOT = .46959E-3
MEAN_MOTION_DDOT = 0

CCSDS_OMM_VERS = 2.0
CREATION_DATE  = 
ORIGINATOR     = 

OBJECT_NAME    = SL-16 R/B
OBJECT_ID      = 2004-021B
CENTER_NAME    = EARTH
REF_FRAME      = TEME
TIME_SYSTEM    = UTC
MEAN_ELEMENT_THEORY = SGP/SGP4

EPOCH          = 2026-03-19T01:46:27.399936
MEAN_MOTION    = 14.14594018
ECCENTRICITY   = .00045329
INCLINATION    = 70.9997
RA_OF_ASC_NODE = 212.7983
ARG_OF_PERICENTER = 357.8014
MEAN_ANOMALY   = 2.3088

EPHEMERIS_TYPE = 0
CLASSIFICATION_TYPE = U
NORAD_CAT_ID   = 28353
ELEMENT_SET_NO = 999
REV_AT_EPOCH   = 12416
BSTAR          = -.93513563E-4
MEAN_MOTION_DOT = -.227E-5
MEAN_MOTION_DDOT = 0

CCSDS_OMM_VERS = 2.0
CREATION_DATE  = 
ORIGINATOR     = 

OBJECT_NAME    = CZ-4B R/B
OBJECT_ID      = 2004-035C
CENTER_NAME    = EARTH
REF_FRAME      = TEME
TIME_SYSTEM    = UTC
MEAN_ELEMENT_THEORY = SGP/SGP4

EPOCH          = 2026-03-19T01:41:31.913664
MEAN_MOTION    = 15.29223199
ECCENTRICITY   = .00301718
INCLINATION    = 97.3479
RA_OF_ASC_NODE = 112.2007
ARG_OF_PERICENTER = 296.6729
MEAN_ANOMALY   = 63.1422

EPHEMERIS_TYPE = 0
CLASSIFICATION_TYPE = U
NORAD_CAT_ID   = 28415
ELEMENT_SET_NO = 999
REV_AT_EPOCH   = 18134
BSTAR          = .23801283E-3
MEAN_MOTION_DOT = .6763E-4
MEAN_MOTION_DDOT = 0

CCSDS_OMM_VERS = 2.0
CREATION_DATE  = 
ORIGINATOR     = 

OBJECT_NAME    = CZ-2C R/B
OBJECT_ID      = 2004-046B
CENTER_NAME    = EARTH
REF_FRAME      = TEME
TIME_SYSTEM    = UTC
MEAN_ELEMENT_THEORY = SGP/SGP4

EPOCH          = 2026-03-19T07:15:08.367552
MEAN_MOTION    = 14.26995309
ECCENTRICITY   = .01403744
INCLINATION    = 98.1981
RA_OF_ASC_NODE = 352.6876
ARG_OF_PERICENTER = 126.1556
MEAN_ANOMALY   = 235.2709

EPHEMERIS_TYPE = 0
CLASSIFICATION_TYPE = U
NORAD_CAT_ID   = 28480
ELEMENT_SET_NO = 999
REV_AT_EPOCH   = 10987
BSTAR          = .57756392E-4
MEAN_MOTION_DOT = .116E-5
MEAN_MOTION_DDOT = 0

CCSDS_OMM_VERS = 2.0
CREATION_DATE  = 
ORIGINATOR     = 

OBJECT_NAME    = ARIANE 5 R/B
OBJECT_ID      = 2004-049H
CENTER_NAME    = EARTH
REF_FRAME      = TEME
TIME_SYSTEM    = UTC
MEAN_ELEMENT_THEORY = SGP/SGP4

EPOCH          = 2026-03-19T04:46:24.295584
MEAN_MOTION    = 14.85282693
ECCENTRICITY   = .00832985
INCLINATION    = 98.2640
RA_OF_ASC_NODE = 247.0128
ARG_OF_PERICENTER = 320.9257
MEAN_ANOMALY   = 38.5958

EPHEMERIS_TYPE = 0
CLASSIFICATION_TYPE = U
NORAD_CAT_ID   = 28499
ELEMENT_SET_NO = 999
REV_AT_EPOCH   = 14720
BSTAR          = .79827817E-4
MEAN_MOTION_DOT = .663E-5
MEAN_MOTION_DDOT = 0

CCSDS_OMM_VERS = 2.0
CREATION_DATE  = 
ORIGINATOR     = 

OBJECT_NAME    = CZ-2D R/B
OBJECT_ID      = 2005-024B
CENTER_NAME    = EARTH
REF_FRAME      = TEME
TIME_SYSTEM    = UTC
MEAN_ELEMENT_THEORY = SGP/SGP4

EPOCH          = 2026-03-18T22:37:37.967520
MEAN_MOTION    = 15.60961320
ECCENTRICITY   = .00042407
INCLINATION    = 97.3581
RA_OF_ASC_NODE = 93.4338
ARG_OF_PERICENTER = 21.1997
MEAN_ANOMALY   = 338.9435

EPHEMERIS_TYPE = 0
CLASSIFICATION_TYPE = U
NORAD_CAT_ID   = 28738
ELEMENT_SET_NO = 999
REV_AT_EPOCH   = 14122
BSTAR          = .41354643E-3
MEAN_MOTION_DOT = .34641E-3
MEAN_MOTION_DDOT = 0

CCSDS_OMM_VERS = 2.0
CREATION_DATE  = 
ORIGINATOR     = 

OBJECT_NAME    = ALOS (DAICHI)
OBJECT_ID      = 2006-002A
CENTER_NAME    = EARTH
REF_FRAME      = TEME
TIME_SYSTEM    = UTC
MEAN_ELEMENT_THEORY = SGP/SGP4

EPOCH          = 2026-03-19T07:20:28.920192
MEAN_MOTION    = 14.69839661
ECCENTRICITY   = .00007238
INCLINATION    = 98.1235
RA_OF_ASC_NODE = 34.2141
ARG_OF_PERICENTER = 81.0548
MEAN_ANOMALY   = 279.0740

EPHEMERIS_TYPE = 0
CLASSIFICATION_TYPE = U
NORAD_CAT_ID   = 28931
ELEMENT_SET_NO = 999
REV_AT_EPOCH   = 7489
BSTAR          = .20815565E-3
MEAN_MOTION_DOT = .1194E-4
MEAN_MOTION_DDOT = 0

