AQUA                    
1 27424U 02022A   26078.27442700  .00000867  00000+0  18279-3 0  9994
2 27424  98.4192  45.8151 0000755 111.3145 353.0103 14.61998899270133
CZ-4B R/B               
1 27432U 02024C   26078.12522068  .00000041  00000+0  44339-4 0  9996
2 27432  98.8818 131.4835 0050004 357.4920  56.9954 14.14549279230577
MIDORI II (ADEOS-II)    
1 27597U 02056A   26077.90429912  .00000259  00000+0  11948-3 0  9992
2 27597  98.7785  36.4465 0001214  30.6601 329.4651 14.29292030211611
H-2A R/B                
1 27601U 02056E   26077.92078495  .00000225  00000+0  93130-4 0  9993
2 27601  98.3219  37.9358 0071014 133.3891 295.9920 14.33766636215432
CZ-4B R/B               
1 28059U 03049C   26077.94223160  .00000300  00000+0  80394-4 0  9999
2 28059  98.6887  73.2107 0047684 202.2176 157.6954 14.55028611187940
CZ-2C R/B               
1 28222U 04012C   26078.13561426  .00046959  00000+0  46492-3 0  9994
2 28222  97.7206 144.3303 0012918 270.6391  89.3388 15.65610161205756
SL-16 R/B               
1 28353U 04021B   26078.07392824 -.00000227  00000+0 -93514-4 0  9994
2 28353  70.9997 212.7983 0004532 357.8014   2.3088 14.14594018124160
CZ-4B R/B               
1 28415U 04035C   26078.07050826  .00006763  00000+0  23801-3 0  9991
2 28415  97.3479 112.2007 0030171 296.6729  63.1422 15.29223199181345
CZ-2C R/B               
1 28480U 04046B   26078.30218018  .00000116  00000+0  57756-4 0  9993
2 28480  98.1981 352.6876 0140374 126.1556 235.2709 14.26995309109873
ARIANE 5 R/B            
1 28499U 04049H   26078.19889231  .00000663  00000+0  79828-4 0  9995
2 28499  98.2640 247.0128 0083298 320.9257  38.5958 14.85282693147205
CZ-2D R/B               
1 28738U 05024B   26077.94280055  .00034641  00000+0  41355-3 0  9992
2 28738  97.3581  93.4338 0004240  21.1997 338.9435 15.60961320141220
ALOS (DAICHI)           
1 28931U 06002A   26078.30589028  .00001194  00000+0  20816-3 0  9993
2 28931  98.1235  34.2141 0000723  81.0548 279.0740 14.69839661 74896
